NORAD_CAT_ID,OBJECT_NAME,OBJECT_TYPE,EPOCH,MEAN_MOTION,ECCENTRICITY,INCLINATION,RA_OF_ASC_NODE,ARG_OF_PERICENTER,MEAN_ANOMALY,BSTAR,MEAN_MOTION_DOT,MEAN_MOTION_DDOT,TLE_LINE0,TLE_LINE1,TLE_LINE2,SEMIMAJOR_AXIS,PERIOD,APOGEE,PERIGEE,DECAYED
54083.0,STARLINK-5178,PAYLOAD,2023-05-14 14:14:58,15.08835052,9.13e-05,53.2179,278.4638,96.804,263.3056,-7.7461e-05,-1.52e-05,0.0,0 STARLINK-5178,1 54083U 22136AJ  23134.59372816 -.00001520  00000-0 -77461-4 0  9997,2 54083  53.2179 278.4638 0000913  96.8040 263.3056 15.08835052 31474,6917.896,95.438,540.392,539.129,0.0
54083.0,STARLINK-5178,PAYLOAD,2023-05-14 15:50:21,15.08835971,0.0001081,53.2175,278.1677,95.1381,264.9734,-4.9154e-05,-1.07e-05,0.0,0 STARLINK-5178,1 54083U 22136AJ  23134.65996719 -.00001070  00000-0 -49154-4 0  9996,2 54083  53.2175 278.1677 0001081  95.1381 264.9734 15.08835971 31488,6917.893,95.438,540.506,539.01,0.0
54083.0,STARLINK-5178,PAYLOAD,2023-05-15 12:30:21,15.08839252,0.0001196,53.2177,274.299,123.9822,236.1284,1.9975e-05,3e-07,0.0,0 STARLINK-5178,1 54083U 22136AJ  23135.52108047  .00000030  00000-0  19975-4 0  9993,2 54083  53.2177 274.2990 0001196 123.9822 236.1284 15.08839252 31614,6917.883,95.438,540.575,538.92,0.0
54083.0,STARLINK-5178,PAYLOAD,2023-05-15 15:41:07,15.08846013,0.0001075,53.2176,273.7044,116.6892,243.4211,-3.0548e-05,-7.74e-06,0.0,0 STARLINK-5178,1 54083U 22136AJ  23135.65355893 -.00000774  00000-0 -30548-4 0  9996,2 54083  53.2176 273.7044 0001075 116.6892 243.4211 15.08846013 32119,6917.862,95.437,540.471,538.983,0.0
54083.0,STARLINK-5178,PAYLOAD,2023-05-16 12:21:08,15.08834888,0.0001149,53.2173,269.839,103.8097,256.3023,3.5484e-05,2.77e-06,0.0,0 STARLINK-5178,1 54083U 22136AJ  23136.51468403  .00000277  00000-0  35484-4 0  9994,2 54083  53.2173 269.8390 0001149 103.8097 256.3023 15.08834888 32248,6917.896,95.438,540.556,538.966,0.0
54083.0,STARLINK-5178,PAYLOAD,2023-05-16 18:42:41,15.08839078,0.0001086,53.2171,268.6526,97.2576,262.8539,2.1983e-05,6.2e-07,0.0,0 STARLINK-5178,1 54083U 22136AJ  23136.77964285  .00000062  00000-0  21983-4 0  9992,2 54083  53.2171 268.6526 0001086  97.2576 262.8539 15.08839078 31803,6917.883,95.438,540.499,538.997,0.0
54083.0,STARLINK-5178,PAYLOAD,2023-05-17 15:22:41,15.08841928,0.0001114,53.2172,264.7864,97.5332,262.5786,5.8748e-06,-1.94e-06,0.0,0 STARLINK-5178,1 54083U 22136AJ  23137.64076220 -.00000194  00000-0  58748-5 0  9999,2 54083  53.2172 264.7864 0001114  97.5332 262.5786 15.08841928 32417,6917.874,95.437,540.51,538.969,0.0
54083.0,STARLINK-5178,PAYLOAD,2023-05-18 12:02:43,15.08848072,9.99e-05,53.2156,260.9249,86.0308,274.0798,-0.00020748,-3.589e-05,0.0,0 STARLINK-5178,1 54083U 22136AJ  23138.50188988 -.00003589  00000-0 -20748-3 0  9999,2 54083  53.2156 260.9249 0000999  86.0308 274.0798 15.08848072 32542,6917.856,95.437,540.412,539.03,0.0
54083.0,STARLINK-5178,PAYLOAD,2023-05-18 16:48:52,15.0883861,0.0001061,53.2158,260.0315,92.9727,267.1386,-4.4354e-06,-3.58e-06,0.0,0 STARLINK-5178,1 54083U 22136AJ  23138.70060688 -.00000358  00000-0 -44354-5 0  9999,2 54083  53.2158 260.0315 0001061  92.9727 267.1386 15.08838610 32094,6917.885,95.438,540.484,539.016,0.0
54083.0,STARLINK-5178,PAYLOAD,2023-05-19 18:15:02,15.08839576,0.0001075,53.216,255.2744,88.9734,271.1382,3.5629e-05,2.79e-06,0.0,0 STARLINK-5178,1 54083U 22136AJ  23139.76044731  .00000279  00000-0  35629-4 0  9991,2 54083  53.2160 255.2744 0001075  88.9734 271.1382 15.08839576 32731,6917.882,95.438,540.49,539.003,0.0
54083.0,STARLINK-5178,PAYLOAD,2023-05-20 16:30:25,15.08851054,0.0001184,53.2161,251.109,83.3915,276.7212,9.8e-05,1.273e-05,0.0,0 STARLINK-5178,1 54083U 22136AJ  23140.68779835  .00001273  00000-0  98000-4 0  9991,2 54083  53.2161 251.1090 0001184  83.3915 276.7212 15.08851054 32875,6917.847,95.437,540.531,538.893,0.0
54083.0,STARLINK-5178,PAYLOAD,2023-05-21 00:27:21,15.08842339,0.000102,53.2155,249.6271,89.8453,270.2656,3.7767e-05,3.13e-06,0.0,0 STARLINK-5178,1 54083U 22136AJ  23141.01900398  .00000313  00000-0  37767-4 0  9996,2 54083  53.2155 249.6271 0001020  89.8453 270.2656 15.08842339 32921,6917.873,95.437,540.444,539.033,0.0
54083.0,STARLINK-5178,PAYLOAD,2023-05-21 06:48:55,15.08834038,0.0001363,53.2152,248.4346,87.3241,272.7907,1.1738e-05,-1.01e-06,0.0,0 STARLINK-5178,1 54083U 22136AJ  23141.28397111 -.00000101  00000-0  11738-4 0  9994,2 54083  53.2152 248.4346 0001363  87.3241 272.7907 15.08834038 32963,6917.899,95.438,540.707,538.821,0.0
54083.0,STARLINK-5178,PAYLOAD,2023-05-21 11:35:04,15.08832034,0.000106,53.2158,247.5427,90.6506,269.4607,-5.5819e-06,-3.77e-06,0.0,0 STARLINK-5178,1 54083U 22136AJ  23141.48269269 -.00000377  00000-0 -55819-5 0  9993,2 54083  53.2158 247.5427 0001060  90.6506 269.4607 15.08832034 32519,6917.905,95.438,540.503,539.036,0.0
54083.0,STARLINK-5178,PAYLOAD,2023-05-21 14:45:50,15.08832122,8.94e-05,53.2159,246.9489,108.6507,251.4582,5.8167e-05,6.38e-06,0.0,0 STARLINK-5178,1 54083U 22136AJ  23141.61516965  .00000638  00000-0  58167-4 0  9992,2 54083  53.2159 246.9489 0000894 108.6507 251.4582 15.08832122 32539,6917.904,95.438,540.388,539.151,0.0
54083.0,STARLINK-5178,PAYLOAD,2023-05-22 09:50:28,15.08835947,0.0001049,53.2165,243.3807,77.9014,282.2095,-4.3464e-05,-9.79e-06,0.0,0 STARLINK-5178,1 54083U 22136AJ  23142.41005368 -.00000979  00000-0 -43464-4 0  9995,2 54083  53.2165 243.3807 0001049  77.9014 282.2095 15.08835947 33131,6917.893,95.438,540.483,539.032,0.0
54083.0,STARLINK-5178,PAYLOAD,2023-05-22 13:01:14,15.08839877,9.24e-05,53.2163,242.7857,82.1281,277.9816,-1.0545e-05,-4.56e-06,0.0,0 STARLINK-5178,1 54083U 22136AJ  23142.54252933 -.00000456  00000-0 -10545-4 0  9995,2 54083  53.2163 242.7857 0000924  82.1281 277.9816 15.08839877 32678,6917.881,95.438,540.385,539.107,0.0
54083.0,STARLINK-5178,PAYLOAD,2023-05-23 11:16:38,15.08825649,7.42e-05,53.2159,238.6227,88.3969,271.7108,0.00013953,1.933e-05,0.0,0 STARLINK-5178,1 54083U 22136AJ  23143.46989355  .00001933  00000-0  13953-3 0  9996,2 54083  53.2159 238.6227 0000742  88.3969 271.7108 15.08825649 33294,6917.924,95.438,540.303,539.276,0.0
54083.0,STARLINK-5178,PAYLOAD,2023-05-23 12:52:01,15.08837288,9.78e-05,53.2161,238.3246,88.0932,272.0172,2.1715e-05,5.8e-07,0.0,0 STARLINK-5178,1 54083U 22136AJ  23143.53613090  .00000058  00000-0  21715-4 0  9997,2 54083  53.2161 238.3246 0000978  88.0932 272.0172 15.08837288 33302,6917.889,95.438,540.43,539.077,0.0
54083.0,STARLINK-5178,PAYLOAD,2023-05-26 10:48:59,15.08828247,0.0001031,53.2164,225.2358,94.8895,265.2215,0.00014598,2.036e-05,0.0,0 STARLINK-5178,1 54083U 22136AJ  23146.45069378  .00002036  00000-0  14598-3 0  9993,2 54083  53.2164 225.2358 0001031  94.8895 265.2215 15.08828247 33743,6917.916,95.438,540.495,539.068,0.0
54083.0,STARLINK-5178,PAYLOAD,2023-05-26 13:59:46,15.08839852,0.000107,53.2169,224.6414,88.9328,271.1786,2.7281e-05,1.46e-06,0.0,0 STARLINK-5178,1 54083U 22136AJ  23146.58317198  .00000146  00000-0  27281-4 0  9997,2 54083  53.2169 224.6414 0001070  88.9328 271.1786 15.08839852 33284,6917.881,95.438,540.486,539.006,0.0
54083.0,STARLINK-5178,PAYLOAD,2023-05-27 13:50:33,15.08836589,0.0001068,53.2168,220.1872,96.7588,263.3526,7.8656e-06,-1.63e-06,0.0,0 STARLINK-5178,1 54083U 22136AJ  23147.57677689 -.00000163  00000-0  78656-5 0  9994,2 54083  53.2168 220.1872 0001068  96.7588 263.3526 15.08836589 33913,6917.891,95.438,540.495,539.017,0.0
54083.0,STARLINK-5178,PAYLOAD,2023-05-27 21:47:29,15.08837271,0.0001072,53.2168,218.7005,89.651,270.4605,4.0164e-06,-2.24e-06,0.0,0 STARLINK-5178,1 54083U 22136AJ  23147.90797721 -.00000224  00000-0  40164-5 0  9992,2 54083  53.2168 218.7005 0001072  89.6510 270.4605 15.08837271 33483,6917.889,95.438,540.495,539.012,0.0
54083.0,STARLINK-5178,PAYLOAD,2023-05-27 23:22:52,15.0883774,0.000101,53.2162,218.4026,90.6346,269.4762,1.3524e-05,-7.3e-07,0.0,0 STARLINK-5178,1 54083U 22136AJ  23147.97421636 -.00000073  00000-0  13524-4 0  9999,2 54083  53.2162 218.4026 0001010  90.6346 269.4762 15.08837740 33492,6917.887,95.438,540.451,539.054,0.0
54083.0,STARLINK-5178,PAYLOAD,2023-05-28 21:38:15,15.08841515,9.85e-05,53.2158,214.2389,86.3011,273.8093,3.7154e-05,3.04e-06,0.0,0 STARLINK-5178,1 54083U 22136AJ  23148.90157313  .00000304  00000-0  37154-4 0  9992,2 54083  53.2158 214.2389 0000985  86.3011 273.8093 15.08841515 33631,6917.876,95.437,540.422,539.059,0.0
54083.0,STARLINK-5178,PAYLOAD,2023-05-28 23:13:39,15.0884069,9.75e-05,53.2155,213.9412,86.7243,273.3861,5.3874e-05,5.7e-06,0.0,0 STARLINK-5178,1 54083U 22136AJ  23148.96781294  .00000570  00000-0  53874-4 0  9991,2 54083  53.2155 213.9412 0000975  86.7243 273.3861 15.08840690 34127,6917.878,95.438,540.418,539.069,0.0
54083.0,STARLINK-5178,PAYLOAD,2023-05-29 13:32:06,15.08845997,9.84e-05,53.2154,211.2644,86.5479,273.5626,6.7735e-05,7.91e-06,0.0,0 STARLINK-5178,1 54083U 22136AJ  23149.56396781  .00000791  00000-0  67735-4 0  9997,2 54083  53.2154 211.2644 0000984  86.5479 273.5626 15.08845997 33735,6917.862,95.437,540.408,539.046,0.0
54083.0,STARLINK-5178,PAYLOAD,2023-05-29 21:29:03,15.08838702,0.000101,53.215,209.7775,85.7871,274.3236,-3.5069e-06,-3.44e-06,0.0,0 STARLINK-5178,1 54083U 22136AJ  23149.89517408 -.00000344  00000-0 -35069-5 0  9996,2 54083  53.2150 209.7775 0001010  85.7871 274.3236 15.08838702 33783,6917.884,95.438,540.448,539.051,0.0
54083.0,STARLINK-5178,PAYLOAD,2023-05-30 08:36:45,15.08832907,0.0001058,53.2149,207.6964,85.6743,274.437,-4.3559e-05,-9.81e-06,0.0,0 STARLINK-5178,1 54083U 22136AJ  23150.35885996 -.00000981  00000-0 -43559-4 0  9998,2 54083  53.2149 207.6964 0001058  85.6743 274.4370 15.08832907 34330,6917.902,95.438,540.499,539.035,0.0
54083.0,STARLINK-5178,PAYLOAD,2023-05-30 10:12:08,15.08832089,0.0001079,53.215,207.3993,84.5249,275.5866,-3.8291e-05,-8.97e-06,0.0,0 STARLINK-5178,1 54083U 22136AJ  23150.42510061 -.00000897  00000-0 -38291-4 0  9997,2 54083  53.2150 207.3993 0001079  84.5249 275.5866 15.08832089 33863,6917.905,95.438,540.516,539.023,0.0
